IRIDIUM 39              
1 25042U 97069D   25279.22065403  .00000997  00000+0  25543-3 0  9997
2 25042  86.3967 163.5783 0015967 300.2268  59.7354 14.49372395465045
IRIDIUM 38              
1 25043U 97069E   25279.49280239  .00000742  00000+0  23792-3 0  9995
2 25043  86.4030 186.3654 0004138  88.0588 272.1084 14.38226159461953
IRIDIUM 42              
1 25077U 97077A   25279.28758549  .00000715  00000+0  23749-3 0  9994
2 25077  86.4033 192.7499 0002932  91.6174 268.5359 14.36453946457146
IRIDIUM 44              
1 25078U 97077B   25279.42838950  .00000699  00000+0  21421-3 0  9992
2 25078  86.4026 174.3470 0003513  56.2554 303.8980 14.40348978459710
IRIDIUM 45              
1 25104U 97082A   25279.26542001  .00022108  00000+0  70811-3 0  9995
2 25104  86.3623 353.8004 0104806 274.0153  84.9119 15.26963805468966
IRIDIUM 24              
1 25105U 97082B   25279.39661379  .00000956  00000+0  28397-3 0  9999
2 25105  86.3939  33.1026 0013413  74.1109 286.1569 14.42228425459247
IRIDIUM 51              
1 25262U 98018A   25279.47311523  .00067093  00000+0  10825-2 0  9996
2 25262  86.3849   0.3972 0070499 179.2909 180.8465 15.49793210464191
IRIDIUM 57              
1 25273U 98019B   25279.52952213  .00000581  00000+0  19357-3 0  9991
2 25273  86.3901  98.5897 0002249  88.1000 272.0454 14.35971917440760
